BOTAN                   
1 65942U 98067XP  25308.30992354  .00070090  00000+0  10417-2 0  9999
2 65942  51.6322 332.1719 0004782  18.8156 341.3011 15.54512341  3875
E-KAGAKU-1              
1 65943U 98067XQ  25308.31705656  .00050443  00000+0  78006-3 0  9997
2 65943  51.6327 332.2193 0004490   7.8441 352.2619 15.53561869  3872
2025-226D               
1 65944U 25226D   25308.56229115  .01101371  00000+0  22614-1 0  9993
2 65944  97.6572  23.2310 0020104 274.3436  85.5513 15.43268434  3711
SHIYAN-31               
1 65945U 25227A   25308.83946781  .00009340  00000+0  42693-3 0  9993
2 65945  80.0042  72.2601 0011486 194.2594 165.8311 15.20406889  3413
CZ-2D R/B               
1 65946U 25227B   25308.80203773  .00009661  00000+0  35596-3 0  9998
2 65946  80.1554  72.6196 0021338 321.2556  38.7144 15.27500581  3427
KUIPER-00101            
1 65947U 25228A   25308.82940226  .00017557  00000+0  52076-3 0  9998
2 65947  51.8796 203.2107 0005666 211.9253 148.1390 15.34890712  4594
KUIPER-00113            
1 65948U 25228B   25308.82577313  .00019429  00000+0  57028-3 0  9994
2 65948  51.8798 203.1914 0006142 208.3959 151.6693 15.35147737  4593
KUIPER-00117            
1 65949U 25228C   25308.82638125  .00014729  00000+0  43596-3 0  9997
2 65949  51.8801 203.1947 0005922 208.5849 151.4813 15.35098846  4598
KUIPER-00121            
1 65950U 25228D   25308.83487941  .00028697  00000+0  85259-3 0  9999
2 65950  51.8807 203.2523 0005631 226.0750 133.9771 15.34531641  4592
KUIPER-00122            
1 65951U 25228E   25308.83336806 -.00655724  00000+0 -24099-1 0  9995
2 65951  51.8823 203.3714 0006679 240.6869  61.3826 15.29760845  3217
KUIPER-00123            
1 65952U 25228F   25308.83336806 -.00003172  00000+0 -98879-4 0  9990
2 65952  51.8824 203.3452 0005093 239.0588  58.7942 15.28882988  1519
KUIPER-00124            
1 65953U 25228G   25308.83733043  .00014816  00000+0  44928-3 0  9995
2 65953  51.8806 203.2666 0005370 237.1903 122.8565 15.34328261  4595
