CCSDS_OMM_VERS = 2.0
CREATION_DATE  = 
ORIGINATOR     = 

OBJECT_NAME    = BOTAN
OBJECT_ID      = 1998-067XP
CENTER_NAME    = EARTH
REF_FRAME      = TEME
TIME_SYSTEM    = UTC
MEAN_ELEMENT_THEORY = SGP/SGP4

EPOCH          = 2025-11-04T07:26:17.393856
MEAN_MOTION    = 15.54512341
ECCENTRICITY   = .00047823
INCLINATION    = 51.6322
RA_OF_ASC_NODE = 332.1719
ARG_OF_PERICENTER = 18.8156
MEAN_ANOMALY   = 341.3011

EPHEMERIS_TYPE = 0
CLASSIFICATION_TYPE = U
NORAD_CAT_ID   = 65942
ELEMENT_SET_NO = 999
REV_AT_EPOCH   = 387
BSTAR          = .1041658E-2
MEAN_MOTION_DOT = .7009E-3
MEAN_MOTION_DDOT = 0

CCSDS_OMM_VERS = 2.0
CREATION_DATE  = 
ORIGINATOR     = 

OBJECT_NAME    = E-KAGAKU-1
OBJECT_ID      = 1998-067XQ
CENTER_NAME    = EARTH
REF_FRAME      = TEME
TIME_SYSTEM    = UTC
MEAN_ELEMENT_THEORY = SGP/SGP4

EPOCH          = 2025-11-04T07:36:33.686784
MEAN_MOTION    = 15.53561869
ECCENTRICITY   = .00044903
INCLINATION    = 51.6327
RA_OF_ASC_NODE = 332.2193
ARG_OF_PERICENTER = 7.8441
MEAN_ANOMALY   = 352.2619

EPHEMERIS_TYPE = 0
CLASSIFICATION_TYPE = U
NORAD_CAT_ID   = 65943
ELEMENT_SET_NO = 999
REV_AT_EPOCH   = 387
BSTAR          = .78006295E-3
MEAN_MOTION_DOT = .50443E-3
MEAN_MOTION_DDOT = 0

CCSDS_OMM_VERS = 2.0
CREATION_DATE  = 
ORIGINATOR     = 

OBJECT_NAME    = 2025-226D
OBJECT_ID      = 2025-226D
CENTER_NAME    = EARTH
REF_FRAME      = TEME
TIME_SYSTEM    = UTC
MEAN_ELEMENT_THEORY = SGP/SGP4

EPOCH          = 2025-11-04T13:29:41.955360
MEAN_MOTION    = 15.43268434
ECCENTRICITY   = .0020104
INCLINATION    = 97.6572
RA_OF_ASC_NODE = 23.2310
ARG_OF_PERICENTER = 274.3436
MEAN_ANOMALY   = 85.5513

EPHEMERIS_TYPE = 0
CLASSIFICATION_TYPE = U
NORAD_CAT_ID   = 65944
ELEMENT_SET_NO = 999
REV_AT_EPOCH   = 371
BSTAR          = .22614E-1
MEAN_MOTION_DOT = .1101371E-1
MEAN_MOTION_DDOT = 0

CCSDS_OMM_VERS = 2.0
CREATION_DATE  = 
ORIGINATOR     = 

OBJECT_NAME    = SHIYAN-31
OBJECT_ID      = 2025-227A
CENTER_NAME    = EARTH
REF_FRAME      = TEME
TIME_SYSTEM    = UTC
MEAN_ELEMENT_THEORY = SGP/SGP4

EPOCH          = 2025-11-04T20:08:50.018784
MEAN_MOTION    = 15.20406889
ECCENTRICITY   = .0011486
INCLINATION    = 80.0042
RA_OF_ASC_NODE = 72.2601
ARG_OF_PERICENTER = 194.2594
MEAN_ANOMALY   = 165.8311

EPHEMERIS_TYPE = 0
CLASSIFICATION_TYPE = U
NORAD_CAT_ID   = 65945
ELEMENT_SET_NO = 999
REV_AT_EPOCH   = 341
BSTAR          = .42693E-3
MEAN_MOTION_DOT = .934E-4
MEAN_MOTION_DDOT = 0

CCSDS_OMM_VERS = 2.0
CREATION_DATE  = 
ORIGINATOR     = 

OBJECT_NAME    = CZ-2D R/B
OBJECT_ID      = 2025-227B
CENTER_NAME    = EARTH
REF_FRAME      = TEME
TIME_SYSTEM    = UTC
MEAN_ELEMENT_THEORY = SGP/SGP4

EPOCH          = 2025-11-04T19:14:56.059872
MEAN_MOTION    = 15.27500581
ECCENTRICITY   = .0021338
INCLINATION    = 80.1554
RA_OF_ASC_NODE = 72.6196
ARG_OF_PERICENTER = 321.2556
MEAN_ANOMALY   = 38.7144

EPHEMERIS_TYPE = 0
CLASSIFICATION_TYPE = U
NORAD_CAT_ID   = 65946
ELEMENT_SET_NO = 999
REV_AT_EPOCH   = 342
BSTAR          = .35596E-3
MEAN_MOTION_DOT = .9661E-4
MEAN_MOTION_DDOT = 0

CCSDS_OMM_VERS = 2.0
CREATION_DATE  = 
ORIGINATOR     = 

OBJECT_NAME    = KUIPER-00101
OBJECT_ID      = 2025-228A
CENTER_NAME    = EARTH
REF_FRAME      = TEME
TIME_SYSTEM    = UTC
MEAN_ELEMENT_THEORY = SGP/SGP4

EPOCH          = 2025-11-04T19:54:20.355264
MEAN_MOTION    = 15.34890712
ECCENTRICITY   = .0005666
INCLINATION    = 51.8796
RA_OF_ASC_NODE = 203.2107
ARG_OF_PERICENTER = 211.9253
MEAN_ANOMALY   = 148.1390

EPHEMERIS_TYPE = 0
CLASSIFICATION_TYPE = U
NORAD_CAT_ID   = 65947
ELEMENT_SET_NO = 999
REV_AT_EPOCH   = 459
BSTAR          = .52076E-3
MEAN_MOTION_DOT = .17557E-3
MEAN_MOTION_DDOT = 0

CCSDS_OMM_VERS = 2.0
CREATION_DATE  = 
ORIGINATOR     = 

OBJECT_NAME    = KUIPER-00113
OBJECT_ID      = 2025-228B
CENTER_NAME    = EARTH
REF_FRAME      = TEME
TIME_SYSTEM    = UTC
MEAN_ELEMENT_THEORY = SGP/SGP4

EPOCH          = 2025-11-04T19:49:06.798432
MEAN_MOTION    = 15.35147737
ECCENTRICITY   = .0006142
INCLINATION    = 51.8798
RA_OF_ASC_NODE = 203.1914
ARG_OF_PERICENTER = 208.3959
MEAN_ANOMALY   = 151.6693

EPHEMERIS_TYPE = 0
CLASSIFICATION_TYPE = U
NORAD_CAT_ID   = 65948
ELEMENT_SET_NO = 999
REV_AT_EPOCH   = 459
BSTAR          = .57028E-3
MEAN_MOTION_DOT = .19429E-3
MEAN_MOTION_DDOT = 0

CCSDS_OMM_VERS = 2.0
CREATION_DATE  = 
ORIGINATOR     = 

OBJECT_NAME    = KUIPER-00117
OBJECT_ID      = 2025-228C
CENTER_NAME    = EARTH
REF_FRAME      = TEME
TIME_SYSTEM    = UTC
MEAN_ELEMENT_THEORY = SGP/SGP4

EPOCH          = 2025-11-04T19:49:59.340000
MEAN_MOTION    = 15.35098846
ECCENTRICITY   = .0005922
INCLINATION    = 51.8801
RA_OF_ASC_NODE = 203.1947
ARG_OF_PERICENTER = 208.5849
MEAN_ANOMALY   = 151.4813

EPHEMERIS_TYPE = 0
CLASSIFICATION_TYPE = U
NORAD_CAT_ID   = 65949
ELEMENT_SET_NO = 999
REV_AT_EPOCH   = 459
BSTAR          = .43596E-3
MEAN_MOTION_DOT = .14729E-3
MEAN_MOTION_DDOT = 0

CCSDS_OMM_VERS = 2.0
CREATION_DATE  = 
ORIGINATOR     = 

OBJECT_NAME    = KUIPER-00121
OBJECT_ID      = 2025-228D
CENTER_NAME    = EARTH
REF_FRAME      = TEME
TIME_SYSTEM    = UTC
MEAN_ELEMENT_THEORY = SGP/SGP4

EPOCH          = 2025-11-04T20:02:13.581024
MEAN_MOTION    = 15.34531641
ECCENTRICITY   = .0005631
INCLINATION    = 51.8807
RA_OF_ASC_NODE = 203.2523
ARG_OF_PERICENTER = 226.0750
MEAN_ANOMALY   = 133.9771

EPHEMERIS_TYPE = 0
CLASSIFICATION_TYPE = U
NORAD_CAT_ID   = 65950
ELEMENT_SET_NO = 999
REV_AT_EPOCH   = 459
BSTAR          = .85259E-3
MEAN_MOTION_DOT = .28697E-3
MEAN_MOTION_DDOT = 0

CCSDS_OMM_VERS = 2.0
CREATION_DATE  = 
ORIGINATOR     = 

OBJECT_NAME    = KUIPER-00122
OBJECT_ID      = 2025-228E
CENTER_NAME    = EARTH
REF_FRAME      = TEME
TIME_SYSTEM    = UTC
MEAN_ELEMENT_THEORY = SGP/SGP4

EPOCH          = 2025-11-04T20:00:03.000384
MEAN_MOTION    = 15.29760845
ECCENTRICITY   = .0006679
INCLINATION    = 51.8823
RA_OF_ASC_NODE = 203.3714
ARG_OF_PERICENTER = 240.6869
MEAN_ANOMALY   = 61.3826

EPHEMERIS_TYPE = 0
CLASSIFICATION_TYPE = U
NORAD_CAT_ID   = 65951
ELEMENT_SET_NO = 999
REV_AT_EPOCH   = 321
BSTAR          = -.24099E-1
MEAN_MOTION_DOT = -.655724E-2
MEAN_MOTION_DDOT = 0

CCSDS_OMM_VERS = 2.0
CREATION_DATE  = 
ORIGINATOR     = 

OBJECT_NAME    = KUIPER-00123
OBJECT_ID      = 2025-228F
CENTER_NAME    = EARTH
REF_FRAME      = TEME
TIME_SYSTEM    = UTC
MEAN_ELEMENT_THEORY = SGP/SGP4

EPOCH          = 2025-11-04T20:00:03.000384
MEAN_MOTION    = 15.28882988
ECCENTRICITY   = .0005093
INCLINATION    = 51.8824
RA_OF_ASC_NODE = 203.3452
ARG_OF_PERICENTER = 239.0588
MEAN_ANOMALY   = 58.7942

EPHEMERIS_TYPE = 0
CLASSIFICATION_TYPE = U
NORAD_CAT_ID   = 65952
ELEMENT_SET_NO = 999
REV_AT_EPOCH   = 151
BSTAR          = -.98879E-4
MEAN_MOTION_DOT = -.3172E-4
MEAN_MOTION_DDOT = 0

CCSDS_OMM_VERS = 2.0
CREATION_DATE  = 
ORIGINATOR     = 

OBJECT_NAME    = KUIPER-00124
OBJECT_ID      = 2025-228G
CENTER_NAME    = EARTH
REF_FRAME      = TEME
TIME_SYSTEM    = UTC
MEAN_ELEMENT_THEORY = SGP/SGP4

EPOCH          = 2025-11-04T20:05:45.349152
MEAN_MOTION    = 15.34328261
ECCENTRICITY   = .000537
INCLINATION    = 51.8806
RA_OF_ASC_NODE = 203.2666
ARG_OF_PERICENTER = 237.1903
MEAN_ANOMALY   = 122.8565

EPHEMERIS_TYPE = 0
CLASSIFICATION_TYPE = U
NORAD_CAT_ID   = 65953
ELEMENT_SET_NO = 999
REV_AT_EPOCH   = 459
BSTAR          = .44928E-3
MEAN_MOTION_DOT = .14816E-3
MEAN_MOTION_DDOT = 0

